IRIDIUM 26              
1 24903U 97043A   25127.52378240  .00000588  00000+0  19132-3 0  9998
2 24903  86.3928 127.7072 0002178  93.6960 266.4486 14.37111983450905
IRIDIUM 22              
1 24907U 97043E   25127.48975780  .00000489  00000+0  16185-3 0  9994
2 24907  86.3937 131.2248 0002328  91.1014 269.0449 14.35929375450935
DUMMY MASS 1            
1 24925U 97048A   25127.56887102  .00000523  00000+0  55328-4 0  9990
2 24925  86.3352 154.1089 0004422 301.8246  58.2548 14.86954573499090
DUMMY MASS 2            
1 24926U 97048B   25127.59156483  .00000516  00000+0  54965-4 0  9993
2 24926  86.3354 155.6971 0005513 315.8044  44.2740 14.86707275498871
IRIDIUM 29              
1 24944U 97051A   25127.80567657  .00000472  00000+0  15427-3 0  9990
2 24944  86.3977 160.8309 0002485  89.1807 270.9675 14.36434187447477
IRIDIUM 33              
1 24946U 97051C   25127.81305566  .00000353  00000+0  11745-3 0  9999
2 24946  86.3890 160.0846 0007026 193.6758 166.4249 14.34868967446956
IRIDIUM 28              
1 24948U 97051E   25127.80531336  .00000418  00000+0  13360-3 0  9993
2 24948  86.3978 158.3716 0002089 102.3864 257.7567 14.37358515448045
IRIDIUM 36              
1 24967U 97056C   25127.70528152  .00000499  00000+0  15993-3 0  9993
2 24967  86.4019 189.9883 0002454  99.4689 260.6786 14.37578667446401
